[{"OBJECT_NAME":"STARLINK-36663","OBJECT_ID":"2026-036R","EPOCH":"2026-03-09T22:00:01.999584","MEAN_MOTION":15.82017637,"ECCENTRICITY":0.00016734,"INCLINATION":42.9997,"RA_OF_ASC_NODE":248.27,"ARG_OF_PERICENTER":281.3291,"MEAN_ANOMALY":226.5377,"EPHEMERIS_TYPE":0,"CLASSIFICATION_TYPE":"U","NORAD_CAT_ID":67919,"ELEMENT_SET_NO":999,"REV_AT_EPOCH":368,"BSTAR":0.00011405241,"MEAN_MOTION_DOT":0.00023549,"MEAN_MOTION_DDOT":0},{"OBJECT_NAME":"GRAVITY-1 R\/B","OBJECT_ID":"2025-226E","EPOCH":"2026-03-09T19:25:48.916416","MEAN_MOTION":15.69045626,"ECCENTRICITY":0.01212739,"INCLINATION":97.7734,"RA_OF_ASC_NODE":162.4594,"ARG_OF_PERICENTER":208.3864,"MEAN_ANOMALY":151.0755,"EPHEMERIS_TYPE":0,"CLASSIFICATION_TYPE":"U","NORAD_CAT_ID":66205,"ELEMENT_SET_NO":999,"REV_AT_EPOCH":2108,"BSTAR":0.00045626025,"MEAN_MOTION_DOT":0.0007988,"MEAN_MOTION_DDOT":4.219159e-6}]
